ALOS (DAICHI)           
1 28931U 06002A   25345.87832758  .00002483  00000+0  42715-3 0  9996
2 28931  98.1090 297.3717 0001098 115.5414 244.5905 14.69484086 60585
H-2A R/B                
1 28932U 06002B   25345.92650154  .00015766  00000+0  82715-3 0  9993
2 28932  98.2316 120.6083 0054489 179.1438 180.9895 15.14543799 81140
RESURS-DK 1             
1 29228U 06021A   25345.77198611  .00004303  00000+0  25496-3 0  9999
2 29228  69.9332 104.3392 0007332 260.6062  99.4275 15.12152295 74231
CZ-4B R/B               
1 29507U 06046C   25346.10901015  .00007659  00000+0  39828-3 0  9995
2 29507  97.5738  26.2489 0033216 208.6168 151.3242 15.15862387 46779
CZ-2C R/B               
1 31114U 07010B   25346.15508628  .00000274  00000+0  14511-3 0  9990
2 31114  98.3974  98.8353 0058941 187.6971 172.3307 14.20209688967290
COSMO-SKYMED 1          
1 31598U 07023A   25346.18611247  .00006147  00000+0  55658-3 0  9997
2 31598  97.8835 171.5816 0001160  88.5110 271.6243 14.95757309  1824
COSMOS 2428             
1 31792U 07029A   25346.17198652  .00000117  00000+0  88582-4 0  9992
2 31792  70.9368  27.0722 0003632  24.3625 335.7667 14.12889565951734
SL-16 R/B               
1 31793U 07029B   25346.17859756 -.00000062  00000+0 -73522-5 0  9992
2 31793  70.9756 356.3375 0002193 262.3928 166.0804 14.14814804952992
KORONAS-FOTON           
1 33504U 09003A   25346.10516147  .00016542  00000+0  39676-3 0  9993
2 33504  82.4316   6.7634 0013179 110.3841 249.8822 15.41163340932249
CZ-2C R/B               
1 37731U 11030B   25345.91901147  .00002702  00000+0  34876-3 0  9998
2 37731  97.8411 300.0437 0051364 276.3661 149.8384 14.80898420777103
H-2A R/B                
1 38341U 12025E   25345.83625930  .00005788  00000+0  53307-3 0  9992
2 38341  98.4600 300.9967 0043608 239.1123 120.5803 14.94443182735097
SHIJIAN-16 (SJ-16)      
1 39358U 13057A   25346.19996926  .00001550  00000+0  15543-3 0  9996
2 39358  74.9737 350.6764 0017634 320.9123  39.0789 14.91982184658450
