CCSDS_OMM_VERS = 2.0
CREATION_DATE  = 
ORIGINATOR     = 

OBJECT_NAME    = ALOS (DAICHI)
OBJECT_ID      = 2006-002A
CENTER_NAME    = EARTH
REF_FRAME      = TEME
TIME_SYSTEM    = UTC
MEAN_ELEMENT_THEORY = SGP/SGP4

EPOCH          = 2025-12-11T21:04:47.502912
MEAN_MOTION    = 14.69484086
ECCENTRICITY   = .00010984
INCLINATION    = 98.1090
RA_OF_ASC_NODE = 297.3717
ARG_OF_PERICENTER = 115.5414
MEAN_ANOMALY   = 244.5905

EPHEMERIS_TYPE = 0
CLASSIFICATION_TYPE = U
NORAD_CAT_ID   = 28931
ELEMENT_SET_NO = 999
REV_AT_EPOCH   = 6058
BSTAR          = .42714678E-3
MEAN_MOTION_DOT = .2483E-4
MEAN_MOTION_DDOT = 0

CCSDS_OMM_VERS = 2.0
CREATION_DATE  = 
ORIGINATOR     = 

OBJECT_NAME    = H-2A R/B
OBJECT_ID      = 2006-002B
CENTER_NAME    = EARTH
REF_FRAME      = TEME
TIME_SYSTEM    = UTC
MEAN_ELEMENT_THEORY = SGP/SGP4

EPOCH          = 2025-12-11T22:14:09.733056
MEAN_MOTION    = 15.14543799
ECCENTRICITY   = .0054489
INCLINATION    = 98.2316
RA_OF_ASC_NODE = 120.6083
ARG_OF_PERICENTER = 179.1438
MEAN_ANOMALY   = 180.9895

EPHEMERIS_TYPE = 0
CLASSIFICATION_TYPE = U
NORAD_CAT_ID   = 28932
ELEMENT_SET_NO = 999
REV_AT_EPOCH   = 8114
BSTAR          = .82715E-3
MEAN_MOTION_DOT = .15766E-3
MEAN_MOTION_DDOT = 0

CCSDS_OMM_VERS = 2.0
CREATION_DATE  = 
ORIGINATOR     = 

OBJECT_NAME    = RESURS-DK 1
OBJECT_ID      = 2006-021A
CENTER_NAME    = EARTH
REF_FRAME      = TEME
TIME_SYSTEM    = UTC
MEAN_ELEMENT_THEORY = SGP/SGP4

EPOCH          = 2025-12-11T18:31:39.599904
MEAN_MOTION    = 15.12152295
ECCENTRICITY   = .0007332
INCLINATION    = 69.9332
RA_OF_ASC_NODE = 104.3392
ARG_OF_PERICENTER = 260.6062
MEAN_ANOMALY   = 99.4275

EPHEMERIS_TYPE = 0
CLASSIFICATION_TYPE = U
NORAD_CAT_ID   = 29228
ELEMENT_SET_NO = 999
REV_AT_EPOCH   = 7423
BSTAR          = .25496E-3
MEAN_MOTION_DOT = .4303E-4
MEAN_MOTION_DDOT = 0

CCSDS_OMM_VERS = 2.0
CREATION_DATE  = 
ORIGINATOR     = 

OBJECT_NAME    = CZ-4B R/B
OBJECT_ID      = 2006-046C
CENTER_NAME    = EARTH
REF_FRAME      = TEME
TIME_SYSTEM    = UTC
MEAN_ELEMENT_THEORY = SGP/SGP4

EPOCH          = 2025-12-12T02:36:58.476960
MEAN_MOTION    = 15.15862387
ECCENTRICITY   = .0033216
INCLINATION    = 97.5738
RA_OF_ASC_NODE = 26.2489
ARG_OF_PERICENTER = 208.6168
MEAN_ANOMALY   = 151.3242

EPHEMERIS_TYPE = 0
CLASSIFICATION_TYPE = U
NORAD_CAT_ID   = 29507
ELEMENT_SET_NO = 999
REV_AT_EPOCH   = 4677
BSTAR          = .39828E-3
MEAN_MOTION_DOT = .7659E-4
MEAN_MOTION_DDOT = 0

CCSDS_OMM_VERS = 2.0
CREATION_DATE  = 
ORIGINATOR     = 

OBJECT_NAME    = CZ-2C R/B
OBJECT_ID      = 2007-010B
CENTER_NAME    = EARTH
REF_FRAME      = TEME
TIME_SYSTEM    = UTC
MEAN_ELEMENT_THEORY = SGP/SGP4

EPOCH          = 2025-12-12T03:43:19.454592
MEAN_MOTION    = 14.20209688
ECCENTRICITY   = .0058941
INCLINATION    = 98.3974
RA_OF_ASC_NODE = 98.8353
ARG_OF_PERICENTER = 187.6971
MEAN_ANOMALY   = 172.3307

EPHEMERIS_TYPE = 0
CLASSIFICATION_TYPE = U
NORAD_CAT_ID   = 31114
ELEMENT_SET_NO = 999
REV_AT_EPOCH   = 96729
BSTAR          = .14511E-3
MEAN_MOTION_DOT = .274E-5
MEAN_MOTION_DDOT = 0

CCSDS_OMM_VERS = 2.0
CREATION_DATE  = 
ORIGINATOR     = 

OBJECT_NAME    = COSMO-SKYMED 1
OBJECT_ID      = 2007-023A
CENTER_NAME    = EARTH
REF_FRAME      = TEME
TIME_SYSTEM    = UTC
MEAN_ELEMENT_THEORY = SGP/SGP4

EPOCH          = 2025-12-12T04:28:00.117408
MEAN_MOTION    = 14.95757309
ECCENTRICITY   = .000116
INCLINATION    = 97.8835
RA_OF_ASC_NODE = 171.5816
ARG_OF_PERICENTER = 88.5110
MEAN_ANOMALY   = 271.6243

EPHEMERIS_TYPE = 0
CLASSIFICATION_TYPE = U
NORAD_CAT_ID   = 31598
ELEMENT_SET_NO = 999
REV_AT_EPOCH   = 182
BSTAR          = .55658E-3
MEAN_MOTION_DOT = .6147E-4
MEAN_MOTION_DDOT = 0

CCSDS_OMM_VERS = 2.0
CREATION_DATE  = 
ORIGINATOR     = 

OBJECT_NAME    = COSMOS 2428
OBJECT_ID      = 2007-029A
CENTER_NAME    = EARTH
REF_FRAME      = TEME
TIME_SYSTEM    = UTC
MEAN_ELEMENT_THEORY = SGP/SGP4

EPOCH          = 2025-12-12T04:07:39.635328
MEAN_MOTION    = 14.12889565
ECCENTRICITY   = .0003632
INCLINATION    = 70.9368
RA_OF_ASC_NODE = 27.0722
ARG_OF_PERICENTER = 24.3625
MEAN_ANOMALY   = 335.7667

EPHEMERIS_TYPE = 0
CLASSIFICATION_TYPE = U
NORAD_CAT_ID   = 31792
ELEMENT_SET_NO = 999
REV_AT_EPOCH   = 95173
BSTAR          = .88582E-4
MEAN_MOTION_DOT = .117E-5
MEAN_MOTION_DDOT = 0

CCSDS_OMM_VERS = 2.0
CREATION_DATE  = 
ORIGINATOR     = 

OBJECT_NAME    = SL-16 R/B
OBJECT_ID      = 2007-029B
CENTER_NAME    = EARTH
REF_FRAME      = TEME
TIME_SYSTEM    = UTC
MEAN_ELEMENT_THEORY = SGP/SGP4

EPOCH          = 2025-12-12T04:17:10.829184
MEAN_MOTION    = 14.14814804
ECCENTRICITY   = .0002193
INCLINATION    = 70.9756
RA_OF_ASC_NODE = 356.3375
ARG_OF_PERICENTER = 262.3928
MEAN_ANOMALY   = 166.0804

EPHEMERIS_TYPE = 0
CLASSIFICATION_TYPE = U
NORAD_CAT_ID   = 31793
ELEMENT_SET_NO = 999
REV_AT_EPOCH   = 95299
BSTAR          = -.73522E-5
MEAN_MOTION_DOT = -.62E-6
MEAN_MOTION_DDOT = 0

CCSDS_OMM_VERS = 2.0
CREATION_DATE  = 
ORIGINATOR     = 

OBJECT_NAME    = KORONAS-FOTON
OBJECT_ID      = 2009-003A
CENTER_NAME    = EARTH
REF_FRAME      = TEME
TIME_SYSTEM    = UTC
MEAN_ELEMENT_THEORY = SGP/SGP4

EPOCH          = 2025-12-12T02:31:25.951008
MEAN_MOTION    = 15.41163340
ECCENTRICITY   = .0013179
INCLINATION    = 82.4316
RA_OF_ASC_NODE = 6.7634
ARG_OF_PERICENTER = 110.3841
MEAN_ANOMALY   = 249.8822

EPHEMERIS_TYPE = 0
CLASSIFICATION_TYPE = U
NORAD_CAT_ID   = 33504
ELEMENT_SET_NO = 999
REV_AT_EPOCH   = 93224
BSTAR          = .39676E-3
MEAN_MOTION_DOT = .16542E-3
MEAN_MOTION_DDOT = 0

CCSDS_OMM_VERS = 2.0
CREATION_DATE  = 
ORIGINATOR     = 

OBJECT_NAME    = CZ-2C R/B
OBJECT_ID      = 2011-030B
CENTER_NAME    = EARTH
REF_FRAME      = TEME
TIME_SYSTEM    = UTC
MEAN_ELEMENT_THEORY = SGP/SGP4

EPOCH          = 2025-12-11T22:03:22.591008
MEAN_MOTION    = 14.80898420
ECCENTRICITY   = .0051364
INCLINATION    = 97.8411
RA_OF_ASC_NODE = 300.0437
ARG_OF_PERICENTER = 276.3661
MEAN_ANOMALY   = 149.8384

EPHEMERIS_TYPE = 0
CLASSIFICATION_TYPE = U
NORAD_CAT_ID   = 37731
ELEMENT_SET_NO = 999
REV_AT_EPOCH   = 77710
BSTAR          = .34876E-3
MEAN_MOTION_DOT = .2702E-4
MEAN_MOTION_DDOT = 0

CCSDS_OMM_VERS = 2.0
CREATION_DATE  = 
ORIGINATOR     = 

OBJECT_NAME    = H-2A R/B
OBJECT_ID      = 2012-025E
CENTER_NAME    = EARTH
REF_FRAME      = TEME
TIME_SYSTEM    = UTC
MEAN_ELEMENT_THEORY = SGP/SGP4

EPOCH          = 2025-12-11T20:04:12.803520
MEAN_MOTION    = 14.94443182
ECCENTRICITY   = .00436088
INCLINATION    = 98.4600
RA_OF_ASC_NODE = 300.9967
ARG_OF_PERICENTER = 239.1123
MEAN_ANOMALY   = 120.5803

EPHEMERIS_TYPE = 0
CLASSIFICATION_TYPE = U
NORAD_CAT_ID   = 38341
ELEMENT_SET_NO = 999
REV_AT_EPOCH   = 73509
BSTAR          = .53306911E-3
MEAN_MOTION_DOT = .5788E-4
MEAN_MOTION_DDOT = 0

CCSDS_OMM_VERS = 2.0
CREATION_DATE  = 
ORIGINATOR     = 

OBJECT_NAME    = SHIJIAN-16 (SJ-16)
OBJECT_ID      = 2013-057A
CENTER_NAME    = EARTH
REF_FRAME      = TEME
TIME_SYSTEM    = UTC
MEAN_ELEMENT_THEORY = SGP/SGP4

EPOCH          = 2025-12-12T04:47:57.344064
MEAN_MOTION    = 14.91982184
ECCENTRICITY   = .0017634
INCLINATION    = 74.9737
RA_OF_ASC_NODE = 350.6764
ARG_OF_PERICENTER = 320.9123
MEAN_ANOMALY   = 39.0789

EPHEMERIS_TYPE = 0
CLASSIFICATION_TYPE = U
NORAD_CAT_ID   = 39358
ELEMENT_SET_NO = 999
REV_AT_EPOCH   = 65845
BSTAR          = .15543E-3
MEAN_MOTION_DOT = .155E-4
MEAN_MOTION_DDOT = 0

